BEESAT-4                
1 41619U 16040W   21212.40389390  .00002772  00000-0  11125-3 0  9997
2 41619  97.2664 267.2619 0011025 166.8597 193.2931 15.25749318271712
CAS-2T & KS-1Q          
1 41847U 16066G   21212.58439763  .00000195  00000-0  38491-4 0  9990
2 41847  98.5981 271.8897 0366308  88.6961 275.6154 14.38219181248228
NAYIF-1 (EO-88)         
1 42017U 17008BX  21212.49387590  .00003014  00000-0  11152-3 0  9994
2 42017  97.3132 279.3063 0004633 326.1284  33.9659 15.28438023247984
ZHUHAI-1 02 (CAS-4B)    
1 42759U 17034B   21212.47836369  .00000617  00000-0  50296-4 0  9996
2 42759  43.0178 299.0397 0007266  75.2017  34.1293 15.10291456227809
ZHUHAI-1 01 (CAS-4A)    
1 42761U 17034D   21212.46702074  .00000565  00000-0  47090-4 0  9993
2 42761  43.0184 298.1221 0007569  77.7478  32.8708 15.10378890227803
MAX VALIER SAT          
1 42778U 17036P   21212.56706260  .00001773  00000-0  76427-4 0  9993
2 42778  97.2519 259.7273 0012492  29.1371 331.0561 15.23768761228006
RADFXSAT (FOX-1B)       
1 43017U 17073E   21212.49473438  .00000644  00000-0  54512-4 0  9998
2 43017  97.7026 114.7329 0255210 156.3840 204.9338 14.79619205199638
FOX-1D (AO-92)          
1 43137U 18004AC  21212.48231276  .00001985  00000-0  81320-4 0  9993
2 43137  97.4045 286.0642 0010201  62.4482 297.7792 15.25430436197370
DIWATA-2B               
1 43678U 18084H   21212.52247828  .00000541  00000-0  59439-4 0  9999
2 43678  97.9294 338.0417 0008387 264.5912  95.4352 14.91773399150008
ES'HAIL 2               
1 43700U 18090A   21212.49161500  .00000143  00000-0  00000-0 0  9994
2 43700   0.0170  87.9316 0001797  89.6410 334.4941  1.00271093  9819
FOX-1CLIFF (AO-95)      
1 43770U 18099N   21212.41338300  .00000841  00000-0  81287-4 0  9991
2 43770  97.6630 281.6260 0012830 270.5318  89.4433 14.95374582145020
ITASAT 1                
1 43786U 18099AE  21212.45786205  .00000371  00000-0  38426-4 0  9998
2 43786  97.6645 282.3784 0013703 262.5684  97.3980 14.95658528145063
JY1SAT (JO-97)          
1 43803U 18099AX  21212.48122209  .00000940  00000-0  89006-4 0  9991
2 43803  97.6613 282.1480 0013385 262.1524  97.8178 14.95918901145073
UWE-4                   
1 43880U 18111E   21212.50213116  .00000786  00000-0  73462-4 0  9999
2 43880  97.6839 119.4789 0011166 324.3222  35.7253 14.96928959141675
NEXUS (FO-99)           
1 43937U 19003F   21212.58805669  .00002289  00000-0  91294-4 0  9994
2 43937  97.1732 253.9990 0022073 211.9701 148.0200 15.25950150140990
PSAT2 (NO-104)          
1 44354U 19036R   21212.26549891  .00020986  00000-0  27193-3 0  9991
2 44354  28.5259 194.6243 0319409  31.6376 330.3003 15.15159441115627
BRICSAT2 (NO-103)       
1 44355U 19036S   21212.13134926  .00038378 -54654-5  38371-3 0  9991
2 44355  28.5244 142.9111 0250196 115.8326 246.8299 15.33289485116136
JAISAT-1                
1 44419U 19038F   21212.32984910  .00001466  00000-0  84279-4 0  9998
2 44419  97.5911 176.8798 0021520 156.7391 203.4819 15.13894504114434
DUCHIFAT-3              
1 44854U 19089C   21212.34151250  .00000530  00000-0  48653-4 0  9999
2 44854  36.9634 201.0781 0007011 135.5447 224.5861 14.99554877 89694
CAS-6 (TO-108)          
1 44881U 19093C   21212.50475055  .00000107  00000-0  20449-4 0  9997
2 44881  97.9238 290.8525 0015982 145.5861 214.6388 14.81467412 87253
RS-44 & BREEZE-KM R/B   
1 44909U 19096E   21212.33100339  .00000006  00000-0 -16944-4 0  9996
2 44909  82.5192  83.6600 0217388 350.8290   8.8868 12.79710849 74438
ORBITAL FACTORY 2 (OF-2)
1 45113U 19071C   21212.32403983  .00004574  00000-0  13867-3 0  9990
2 45113  51.6410 184.7500 0012402  91.3576 268.8828 15.36094721 83919
HUSKYSAT-1 (HO-107)     
1 45119U 19071J   21212.20488405  .00004359  00000-0  13271-3 0  9995
2 45119  51.6403 184.6984 0011844  87.7655 272.4684 15.36094191 83897
BY70-2                  
1 45857U 20042B   21212.47388180  .00001509  00000-0  22033-3 0  9992
2 45857  97.9837 287.7662 0012640  76.9569 283.3057 14.77156062 58041
SALSAT                  
1 46495U 20068K   21212.58620673 -.00000067  00000-0 -36277-6 0  9995
2 46495  97.6930 149.8244 0015768 285.6689  74.2800 15.03490090 45963
BY70-3                  
1 46839U 20079N   21212.55248375  .00003729  00000-0  11560-3 0  9992
2 46839  97.2379 285.5372 0008533  56.6704  55.1788 15.34002737 40963
RADFXSAT-2 (AO-109)     
1 47311U 21002C   21212.31532507  .00002016  00000-0  98353-4 0  9996
2 47311  60.6851 126.9848 0040794  70.6922 289.8569 15.21797640 29541
UVSQ-SAT                
1 47438U 21006AB  21212.42238492  .00001126  00000-0  66930-4 0  9995
2 47438  97.4845 272.8550 0011388 311.1459  48.8789 15.13243762 28704
DIY-1 (ARDUIQUBE)       
1 47963U 21022AH  21212.44019771  .00001973  00000-0  13375-3 0  9999
2 47963  97.5542 113.9935 0020195 149.4280 210.8130 15.07456302 18523
